{"type": "FeatureCollection", "features": [ {"type": "Feature", "properties": {"norad_id": 40315, "name": "COSMOS 2501 (702K)", "group": "gnss", "lat": -63.30748951644028, "lon": 97.46348779603926, "alt_km": 19112.090853373527, "timestamp": "2025-12-24T14:43:29.244894+00:00", "meta": {"OBJECT_NAME": "COSMOS 2501 (702K)", "OBJECT_ID": "2014-075A", "EPOCH": "2025-12-19T02:31:27.452640", "MEAN_MOTION": 2.13101513, "ECCENTRICITY": 0.0020099, "INCLINATION": 63.6146, "RA_OF_ASC_NODE": 196.6046, "ARG_OF_PERICENTER": 204.1838, "MEAN_ANOMALY": 155.7988, "EPHEMERIS_TYPE": 0, "CLASSIFICATION_TYPE": "U", "NORAD_CAT_ID": 40315, "ELEMENT_SET_NO": 999, "REV_AT_EPOCH": 8601, "BSTAR": 0, "MEAN_MOTION_DOT": 1.06e-06, "MEAN_MOTION_DDOT": 0}, "tle": {"line1": "1 40315U 14075A   25353.10517885  .00000106  00000+0  00000+0 0  9998", "line2": "2 40315  63.6146 196.6046 0020099 204.1838 155.7988  2.13101513 86014"}}, "geometry": {"type": "Point", "coordinates": [97.46348779603926, -63.30748951644028]}}, {"type": "Feature", "properties": {"norad_id": 40534, "name": "GPS BIIF-9  (PRN 26)", "group": "gnss", "lat": 33.12205918774995, "lon": -119.346313012108, "alt_km": 19893.29376477381, "timestamp": "2025-12-24T14:43:29.244908+00:00", "meta": {"OBJECT_NAME": "GPS BIIF-9  (PRN 26)", "OBJECT_ID": "2015-013A", "EPOCH": "2025-12-24T01:21:24.633504", "MEAN_MOTION": 2.00561873, "ECCENTRICITY": 0.01074729, "INCLINATION": 53.1962, "RA_OF_ASC_NODE": 211.4215, "ARG_OF_PERICENTER": 38.7568, "MEAN_ANOMALY": 322.085, "EPHEMERIS_TYPE": 0, "CLASSIFICATION_TYPE": "U", "NORAD_CAT_ID": 40534, "ELEMENT_SET_NO": 999, "REV_AT_EPOCH": 7831, "BSTAR": 0, "MEAN_MOTION_DOT": 7.5e-07, "MEAN_MOTION_DDOT": 0}, "tle": {"line1": "1 40534U 15013A   25358.05653511  .00000075  00000+0  00000+0 0  9995", "line2": "2 40534  53.1962 211.4215 0107472  38.7568 322.0850  2.00561873 78319"}}, "geometry": {"type": "Point", "coordinates": [-119.346313012108, 33.12205918774995]}}, {"type": "Feature", "properties": {"norad_id": 40544, "name": "GSAT0203 (GALILEO 7)", "group": "gnss", "lat": 43.6559770439216, "lon": 127.75763094810199, "alt_km": 23233.356067779736, "timestamp": "2025-12-24T14:43:29.244919+00:00", "meta": {"OBJECT_NAME": "GSAT0203 (GALILEO 7)", "OBJECT_ID": "2015-017A", "EPOCH": "2025-12-20T21:23:15.511200", "MEAN_MOTION": 1.70475982, "ECCENTRICITY": 0.00064626, "INCLINATION": 56.8444, "RA_OF_ASC_NODE": 346.4578, "ARG_OF_PERICENTER": 274.4172, "MEAN_ANOMALY": 85.5182, "EPHEMERIS_TYPE": 0, "CLASSIFICATION_TYPE": "U", "NORAD_CAT_ID": 40544, "ELEMENT_SET_NO": 999, "REV_AT_EPOCH": 6616, "BSTAR": 0, "MEAN_MOTION_DOT": -6.9e-07, "MEAN_MOTION_DDOT": 0}, "tle": {"line1": "1 40544U 15017A   25354.89115175 -.00000069  00000+0  00000+0 0  9991", "line2": "2 40544  56.8444 346.4578 0006462 274.4172  85.5182  1.70475982 66163"}}, "geometry": {"type": "Point", "coordinates": [127.75763094810199, 43.6559770439216]}}, {"type": "Feature", "properties": {"norad_id": 40545, "name": "GSAT0204 (GALILEO 8)", "group": "gnss", "lat": -26.567674991696826, "lon": -32.710768084273674, "alt_km": 23216.67449619546, "timestamp": "2025-12-24T14:43:29.244931+00:00", "meta": {"OBJECT_NAME": "GSAT0204 (GALILEO 8)", "OBJECT_ID": "2015-017B", "EPOCH": "2025-12-20T13:26:28.826304", "MEAN_MOTION": 1.70475697, "ECCENTRICITY": 0.0006133, "INCLINATION": 56.8522, "RA_OF_ASC_NODE": 346.4847, "ARG_OF_PERICENTER": 266.5447, "MEAN_ANOMALY": 93.3948, "EPHEMERIS_TYPE": 0, "CLASSIFICATION_TYPE": "U", "NORAD_CAT_ID": 40545, "ELEMENT_SET_NO": 999, "REV_AT_EPOCH": 2920, "BSTAR": 0, "MEAN_MOTION_DOT": -7e-07, "MEAN_MOTION_DDOT": 0}, "tle": {"line1": "1 40545U 15017B   25354.56005586 -.00000070  00000+0  00000+0 0  9992", "line2": "2 40545  56.8522 346.4847 0006133 266.5447  93.3948  1.70475697 29206"}}, "geometry": {"type": "Point", "coordinates": [-32.710768084273674, -26.567674991696826]}}, {"type": "Feature", "properties": {"norad_id": 40549, "name": "BEIDOU-3S IGSO-1S (C31)", "group": "gnss", "lat": 45.26811511141581, "lon": 58.20060636127745, "alt_km": 35756.164583813, "timestamp": "2025-12-24T14:43:29.244943+00:00", "meta": {"OBJECT_NAME": "BEIDOU-3S IGSO-1S (C31)", "OBJECT_ID": "2015-019A", "EPOCH": "2025-12-18T19:55:38.829792", "MEAN_MOTION": 1.00292047, "ECCENTRICITY": 0.0036331, "INCLINATION": 49.5404, "RA_OF_ASC_NODE": 297.6395, "ARG_OF_PERICENTER": 194.0028, "MEAN_ANOMALY": 349.3621, "EPHEMERIS_TYPE": 0, "CLASSIFICATION_TYPE": "U", "NORAD_CAT_ID": 40549, "ELEMENT_SET_NO": 999, "REV_AT_EPOCH": 3926, "BSTAR": 0, "MEAN_MOTION_DOT": -1.83e-06, "MEAN_MOTION_DDOT": 0}, "tle": {"line1": "1 40549U 15019A   25352.83031053 -.00000183  00000+0  00000+0 0  9999", "line2": "2 40549  49.5404 297.6395 0036331 194.0028 349.3621  1.00292047 39264"}}, "geometry": {"type": "Point", "coordinates": [58.20060636127745, 45.26811511141581]}}, {"type": "Feature", "properties": {"norad_id": 40730, "name": "GPS BIIF-10 (PRN 08)", "group": "gnss", "lat": -51.486592784153444, "lon": -150.98756383476262, "alt_km": 20245.856361909064, "timestamp": "2025-12-24T14:43:29.244957+00:00", "meta": {"OBJECT_NAME": "GPS BIIF-10 (PRN 08)", "OBJECT_ID": "2015-033A", "EPOCH": "2025-12-23T05:17:42.404352", "MEAN_MOTION": 2.00565183, "ECCENTRICITY": 0.01115799, "INCLINATION": 54.1216, "RA_OF_ASC_NODE": 274.3416, "ARG_OF_PERICENTER": 27.0753, "MEAN_ANOMALY": 333.5521, "EPHEMERIS_TYPE": 0, "CLASSIFICATION_TYPE": "U", "NORAD_CAT_ID": 40730, "ELEMENT_SET_NO": 999, "REV_AT_EPOCH": 7646, "BSTAR": 0, "MEAN_MOTION_DOT": -1.3e-07, "MEAN_MOTION_DDOT": 0}, "tle": {"line1": "1 40730U 15033A   25357.22062968 -.00000013  00000+0  00000+0 0  9996", "line2": "2 40730  54.1216 274.3416 0111579  27.0753 333.5521  2.00565183 76465"}}, "geometry": {"type": "Point", "coordinates": [-150.98756383476262, -51.486592784153444]}}, {"type": "Feature", "properties": {"norad_id": 40748, "name": "BEIDOU-3S M2S (C58)", "group": "gnss", "lat": -35.512581458143714, "lon": 157.9689076034696, "alt_km": 21509.52582829998, "timestamp": "2025-12-24T14:43:29.244968+00:00", "meta": {"OBJECT_NAME": "BEIDOU-3S M2S (C58)", "OBJECT_ID": "2015-037A", "EPOCH": "2025-12-23T17:46:18.118272", "MEAN_MOTION": 1.86229556, "ECCENTRICITY": 0.00118562, "INCLINATION": 55.029, "RA_OF_ASC_NODE": 308.0865, "ARG_OF_PERICENTER": 270.9171, "MEAN_ANOMALY": 88.9514, "EPHEMERIS_TYPE": 0, "CLASSIFICATION_TYPE": "U", "NORAD_CAT_ID": 40748, "ELEMENT_SET_NO": 999, "REV_AT_EPOCH": 7085, "BSTAR": 0, "MEAN_MOTION_DOT": -5.3e-07, "MEAN_MOTION_DDOT": 0}, "tle": {"line1": "1 40748U 15037A   25357.74048748 -.00000053  00000+0  00000+0 0  9990", "line2": "2 40748  55.0290 308.0865 0011856 270.9171  88.9514  1.86229556 70853"}}, "geometry": {"type": "Point", "coordinates": [157.9689076034696, -35.512581458143714]}}, {"type": "Feature", "properties": {"norad_id": 40749, "name": "BEIDOU-3S M1S (C57)", "group": "gnss", "lat": 51.24824801298028, "lon": 8.62834484950135, "alt_km": 21516.166396871526, "timestamp": "2025-12-24T14:43:29.244980+00:00", "meta": {"OBJECT_NAME": "BEIDOU-3S M1S (C57)", "OBJECT_ID": "2015-037B", "EPOCH": "2025-12-23T23:15:38.644992", "MEAN_MOTION": 1.86253915, "ECCENTRICITY": 0.00036937, "INCLINATION": 55.0251, "RA_OF_ASC_NODE": 308.0679, "ARG_OF_PERICENTER": 2.4172, "MEAN_ANOMALY": 357.5894, "EPHEMERIS_TYPE": 0, "CLASSIFICATION_TYPE": "U", "NORAD_CAT_ID": 40749, "ELEMENT_SET_NO": 999, "REV_AT_EPOCH": 7086, "BSTAR": 0, "MEAN_MOTION_DOT": -5.3e-07, "MEAN_MOTION_DDOT": 0}, "tle": {"line1": "1 40749U 15037B   25357.96919728 -.00000053  00000+0  00000+0 0  9990", "line2": "2 40749  55.0251 308.0679 0003693   2.4172 357.5894  1.86253915 70866"}}, "geometry": {"type": "Point", "coordinates": [8.62834484950135, 51.24824801298028]}}, {"type": "Feature", "properties": {"norad_id": 40889, "name": "GSAT0205 (GALILEO 9)", "group": "gnss", "lat": 50.37208197910502, "lon": -11.323916638701244, "alt_km": 23209.21651900783, "timestamp": "2025-12-24T14:43:29.244991+00:00", "meta": {"OBJECT_NAME": "GSAT0205 (GALILEO 9)", "OBJECT_ID": "2015-045A", "EPOCH": "2025-12-23T06:16:38.782272", "MEAN_MOTION": 1.70473104, "ECCENTRICITY": 0.00062228, "INCLINATION": 55.0001, "RA_OF_ASC_NODE": 226.4673, "ARG_OF_PERICENTER": 42.5636, "MEAN_ANOMALY": 317.5856, "EPHEMERIS_TYPE": 0, "CLASSIFICATION_TYPE": "U", "NORAD_CAT_ID": 40889, "ELEMENT_SET_NO": 999, "REV_AT_EPOCH": 6401, "BSTAR": 0, "MEAN_MOTION_DOT": 7.3e-07, "MEAN_MOTION_DDOT": 0}, "tle": {"line1": "1 40889U 15045A   25357.26155998  .00000073  00000+0  00000+0 0  9999", "line2": "2 40889  55.0001 226.4673 0006222  42.5636 317.5856  1.70473104 64013"}}, "geometry": {"type": "Point", "coordinates": [-11.323916638701244, 50.37208197910502]}}, {"type": "Feature", "properties": {"norad_id": 40890, "name": "GSAT0206 (GALILEO 10)", "group": "gnss", "lat": -20.786112665883, "lon": -148.98032452900594, "alt_km": 23220.309652314507, "timestamp": "2025-12-24T14:43:29.245007+00:00", "meta": {"OBJECT_NAME": "GSAT0206 (GALILEO 10)", "OBJECT_ID": "2015-045B", "EPOCH": "2025-12-24T01:39:01.990656", "MEAN_MOTION": 1.70473231, "ECCENTRICITY": 0.00040969, "INCLINATION": 54.9989, "RA_OF_ASC_NODE": 226.4401, "ARG_OF_PERICENTER": 41.1407, "MEAN_ANOMALY": 318.987, "EPHEMERIS_TYPE": 0, "CLASSIFICATION_TYPE": "U", "NORAD_CAT_ID": 40890, "ELEMENT_SET_NO": 999, "REV_AT_EPOCH": 6405, "BSTAR": 0, "MEAN_MOTION_DOT": 7.1e-07, "MEAN_MOTION_DDOT": 0}, "tle": {"line1": "1 40890U 15045B   25358.06877304  .00000071  00000+0  00000+0 0  9990", "line2": "2 40890  54.9989 226.4401 0004096  41.1407 318.9870  1.70473231 64051"}}, "geometry": {"type": "Point", "coordinates": [-148.98032452900594, -20.786112665883]}}]}